{"type": "FeatureCollection", "features": [ {"type": "Feature", "properties": {"norad_id": 33153, "name": "INTELSAT 25 (IS-25)", "group": "intelsat", "lat": 1.8426591296113135, "lon": -155.05718031751886, "alt_km": 35773.11748389627, "timestamp": "2025-12-04T10:51:49.773725+00:00", "meta": {"OBJECT_NAME": "INTELSAT 25 (IS-25)", "OBJECT_ID": "2008-034A", "EPOCH": "2025-12-03T17:01:49.924704", "MEAN_MOTION": 1.00271325, "ECCENTRICITY": 0.00053616, "INCLINATION": 2.2026, "RA_OF_ASC_NODE": 82.7502, "ARG_OF_PERICENTER": 177.6461, "MEAN_ANOMALY": 36.3651, "EPHEMERIS_TYPE": 0, "CLASSIFICATION_TYPE": "U", "NORAD_CAT_ID": 33153, "ELEMENT_SET_NO": 999, "REV_AT_EPOCH": 6373, "BSTAR": 0, "MEAN_MOTION_DOT": -2.07e-06, "MEAN_MOTION_DDOT": 0}, "tle": {"line1": "1 33153U 08034A   25337.70960561 -.00000207  00000+0  00000+0 0  9992", "line2": "2 33153   2.2026  82.7502 0005361 177.6461  36.3651  1.00271325 63734"}}, "geometry": {"type": "Point", "coordinates": [-155.05718031751886, 1.8426591296113135]}}, {"type": "Feature", "properties": {"norad_id": 33376, "name": "GALAXY 19 (G-19)", "group": "intelsat", "lat": 0.016520272681538644, "lon": 139.43457599317688, "alt_km": 35794.10820844936, "timestamp": "2025-12-04T10:51:49.773737+00:00", "meta": {"OBJECT_NAME": "GALAXY 19 (G-19)", "OBJECT_ID": "2008-045A", "EPOCH": "2025-12-04T02:49:38.604288", "MEAN_MOTION": 1.00270792, "ECCENTRICITY": 0.000337, "INCLINATION": 0.0151, "RA_OF_ASC_NODE": 13.4448, "ARG_OF_PERICENTER": 248.9287, "MEAN_ANOMALY": 116.2398, "EPHEMERIS_TYPE": 0, "CLASSIFICATION_TYPE": "U", "NORAD_CAT_ID": 33376, "ELEMENT_SET_NO": 999, "REV_AT_EPOCH": 6294, "BSTAR": 0, "MEAN_MOTION_DOT": -1.23e-06, "MEAN_MOTION_DDOT": 0}, "tle": {"line1": "1 33376U 08045A   25338.11780792 -.00000123  00000+0  00000+0 0  9990", "line2": "2 33376   0.0151  13.4448 0003370 248.9287 116.2398  1.00270792 62947"}}, "geometry": {"type": "Point", "coordinates": [139.43457599317688, 0.016520272681538644]}}, {"type": "Feature", "properties": {"norad_id": 35493, "name": "FM-5", "group": "intelsat", "lat": -0.020401925373740647, "lon": 150.31549561818477, "alt_km": 35782.2842647758, "timestamp": "2025-12-04T10:51:49.773749+00:00", "meta": {"OBJECT_NAME": "FM-5", "OBJECT_ID": "2009-034A", "EPOCH": "2025-12-04T03:06:38.806848", "MEAN_MOTION": 1.00269507, "ECCENTRICITY": 0.0001103, "INCLINATION": 0.0201, "RA_OF_ASC_NODE": 286.617, "ARG_OF_PERICENTER": 238.8987, "MEAN_ANOMALY": 228.2133, "EPHEMERIS_TYPE": 0, "CLASSIFICATION_TYPE": "U", "NORAD_CAT_ID": 35493, "ELEMENT_SET_NO": 999, "REV_AT_EPOCH": 4468, "BSTAR": 0, "MEAN_MOTION_DOT": -1.84e-06, "MEAN_MOTION_DDOT": 0}, "tle": {"line1": "1 35493U 09034A   25338.12961582 -.00000184  00000+0  00000+0 0  9997", "line2": "2 35493   0.0201 286.6170 0001103 238.8987 228.2133  1.00269507 44682"}}, "geometry": {"type": "Point", "coordinates": [150.31549561818477, -0.020401925373740647]}}, {"type": "Feature", "properties": {"norad_id": 36097, "name": "INTELSAT 14 (IS-14)", "group": "intelsat", "lat": -0.03297431597953143, "lon": -168.56063992151405, "alt_km": 35781.34927872964, "timestamp": "2025-12-04T10:51:49.773760+00:00", "meta": {"OBJECT_NAME": "INTELSAT 14 (IS-14)", "OBJECT_ID": "2009-064A", "EPOCH": "2025-12-04T01:31:40.460736", "MEAN_MOTION": 1.00271137, "ECCENTRICITY": 0.0002687, "INCLINATION": 0.0138, "RA_OF_ASC_NODE": 307.8682, "ARG_OF_PERICENTER": 307.8003, "MEAN_ANOMALY": 155.3991, "EPHEMERIS_TYPE": 0, "CLASSIFICATION_TYPE": "U", "NORAD_CAT_ID": 36097, "ELEMENT_SET_NO": 999, "REV_AT_EPOCH": 5864, "BSTAR": 0, "MEAN_MOTION_DOT": -2.57e-06, "MEAN_MOTION_DDOT": 0}, "tle": {"line1": "1 36097U 09064A   25338.06366274 -.00000257  00000+0  00000+0 0  9992", "line2": "2 36097   0.0138 307.8682 0002687 307.8003 155.3991  1.00271137 58645"}}, "geometry": {"type": "Point", "coordinates": [-168.56063992151405, -0.03297431597953143]}}, {"type": "Feature", "properties": {"norad_id": 36106, "name": "INTELSAT 15 (IS-15)", "group": "intelsat", "lat": -0.006120868869011855, "lon": -38.352936281216984, "alt_km": 35782.46963361585, "timestamp": "2025-12-04T10:51:49.773772+00:00", "meta": {"OBJECT_NAME": "INTELSAT 15 (IS-15)", "OBJECT_ID": "2009-067A", "EPOCH": "2025-12-04T01:49:38.769888", "MEAN_MOTION": 1.00270229, "ECCENTRICITY": 0.0002458, "INCLINATION": 0.0136, "RA_OF_ASC_NODE": 336.3023, "ARG_OF_PERICENTER": 278.3743, "MEAN_ANOMALY": 291.0512, "EPHEMERIS_TYPE": 0, "CLASSIFICATION_TYPE": "U", "NORAD_CAT_ID": 36106, "ELEMENT_SET_NO": 999, "REV_AT_EPOCH": 3927, "BSTAR": 0, "MEAN_MOTION_DOT": -1.69e-06, "MEAN_MOTION_DDOT": 0}, "tle": {"line1": "1 36106U 09067A   25338.07614317 -.00000169  00000+0  00000+0 0  9993", "line2": "2 36106   0.0136 336.3023 0002458 278.3743 291.0512  1.00270229 39275"}}, "geometry": {"type": "Point", "coordinates": [-38.352936281216984, -0.006120868869011855]}}, {"type": "Feature", "properties": {"norad_id": 36131, "name": "DIRECTV 12", "group": "intelsat", "lat": -9.44707018556171e-05, "lon": 133.74394584486603, "alt_km": 35786.285049021746, "timestamp": "2025-12-04T10:51:49.773784+00:00", "meta": {"OBJECT_NAME": "DIRECTV 12", "OBJECT_ID": "2009-075A", "EPOCH": "2025-12-03T23:32:29.378112", "MEAN_MOTION": 1.00270455, "ECCENTRICITY": 6.2e-06, "INCLINATION": 0.0135, "RA_OF_ASC_NODE": 87.4871, "ARG_OF_PERICENTER": 93.2421, "MEAN_ANOMALY": 142.739, "EPHEMERIS_TYPE": 0, "CLASSIFICATION_TYPE": "U", "NORAD_CAT_ID": 36131, "ELEMENT_SET_NO": 999, "REV_AT_EPOCH": 4459, "BSTAR": 0, "MEAN_MOTION_DOT": -8.7e-07, "MEAN_MOTION_DDOT": 0}, "tle": {"line1": "1 36131U 09075A   25337.98089558 -.00000087  00000+0  00000+0 0  9991", "line2": "2 36131   0.0135  87.4871 0000062  93.2421 142.7390  1.00270455 44591"}}, "geometry": {"type": "Point", "coordinates": [133.74394584486603, -9.44707018556171e-05]}}, {"type": "Feature", "properties": {"norad_id": 36397, "name": "INTELSAT 16 (IS-16)", "group": "intelsat", "lat": -0.012438259360826681, "lon": 160.229501686329, "alt_km": 35787.863304424354, "timestamp": "2025-12-04T10:51:49.773796+00:00", "meta": {"OBJECT_NAME": "INTELSAT 16 (IS-16)", "OBJECT_ID": "2010-006A", "EPOCH": "2025-12-04T02:58:38.625888", "MEAN_MOTION": 1.00269714, "ECCENTRICITY": 0.0002414, "INCLINATION": 0.0101, "RA_OF_ASC_NODE": 318.6757, "ARG_OF_PERICENTER": 298.1734, "MEAN_ANOMALY": 144.8118, "EPHEMERIS_TYPE": 0, "CLASSIFICATION_TYPE": "U", "NORAD_CAT_ID": 36397, "ELEMENT_SET_NO": 999, "REV_AT_EPOCH": 5769, "BSTAR": 0, "MEAN_MOTION_DOT": -2.28e-06, "MEAN_MOTION_DDOT": 0}, "tle": {"line1": "1 36397U 10006A   25338.12405817 -.00000228  00000+0  00000+0 0  9995", "line2": "2 36397   0.0101 318.6757 0002414 298.1734 144.8118  1.00269714 57698"}}, "geometry": {"type": "Point", "coordinates": [160.229501686329, -0.012438259360826681]}}, {"type": "Feature", "properties": {"norad_id": 37185, "name": "XM-5", "group": "intelsat", "lat": -0.0210367547492926, "lon": 121.25807453130635, "alt_km": 35782.17909214684, "timestamp": "2025-12-04T10:51:49.773808+00:00", "meta": {"OBJECT_NAME": "XM-5", "OBJECT_ID": "2010-053A", "EPOCH": "2025-12-04T01:11:34.886112", "MEAN_MOTION": 1.00269476, "ECCENTRICITY": 0.0001293, "INCLINATION": 0.0604, "RA_OF_ASC_NODE": 273.4167, "ARG_OF_PERICENTER": 241.0064, "MEAN_ANOMALY": 181.4088, "EPHEMERIS_TYPE": 0, "CLASSIFICATION_TYPE": "U", "NORAD_CAT_ID": 37185, "ELEMENT_SET_NO": 999, "REV_AT_EPOCH": 5552, "BSTAR": 0, "MEAN_MOTION_DOT": -6e-08, "MEAN_MOTION_DDOT": 0}, "tle": {"line1": "1 37185U 10053A   25338.04970933 -.00000006  00000+0  00000+0 0  9994", "line2": "2 37185   0.0604 273.4167 0001293 241.0064 181.4088  1.00269476 55520"}}, "geometry": {"type": "Point", "coordinates": [121.25807453130635, -0.0210367547492926]}}, {"type": "Feature", "properties": {"norad_id": 37238, "name": "INTELSAT 17 (IS-17)", "group": "intelsat", "lat": 0.0004434495417868591, "lon": -57.52700948653745, "alt_km": 35781.86857598103, "timestamp": "2025-12-04T10:51:49.773820+00:00", "meta": {"OBJECT_NAME": "INTELSAT 17 (IS-17)", "OBJECT_ID": "2010-065B", "EPOCH": "2025-12-04T00:20:32.277408", "MEAN_MOTION": 1.00267535, "ECCENTRICITY": 0.000225, "INCLINATION": 0.0143, "RA_OF_ASC_NODE": 286.1301, "ARG_OF_PERICENTER": 320.6602, "MEAN_ANOMALY": 257.4345, "EPHEMERIS_TYPE": 0, "CLASSIFICATION_TYPE": "U", "NORAD_CAT_ID": 37238, "ELEMENT_SET_NO": 999, "REV_AT_EPOCH": 5129, "BSTAR": 0, "MEAN_MOTION_DOT": 1.6e-07, "MEAN_MOTION_DDOT": 0}, "tle": {"line1": "1 37238U 10065B   25338.01426247  .00000016  00000+0  00000+0 0  9997", "line2": "2 37238   0.0143 286.1301 0002250 320.6602 257.4345  1.00267535 51298"}}, "geometry": {"type": "Point", "coordinates": [-57.52700948653745, 0.0004434495417868591]}}, {"type": "Feature", "properties": {"norad_id": 37392, "name": "INTELSAT 28 (IS-28)", "group": "intelsat", "lat": 1.108502465527791, "lon": -155.27257441858347, "alt_km": 35775.85665356551, "timestamp": "2025-12-04T10:51:49.773836+00:00", "meta": {"OBJECT_NAME": "INTELSAT 28 (IS-28)", "OBJECT_ID": "2011-016A", "EPOCH": "2025-12-04T01:35:25.103328", "MEAN_MOTION": 1.00271095, "ECCENTRICITY": 0.0004122, "INCLINATION": 1.3005, "RA_OF_ASC_NODE": 85.1628, "ARG_OF_PERICENTER": 173.4943, "MEAN_ANOMALY": 166.6387, "EPHEMERIS_TYPE": 0, "CLASSIFICATION_TYPE": "U", "NORAD_CAT_ID": 37392, "ELEMENT_SET_NO": 999, "REV_AT_EPOCH": 5132, "BSTAR": 0, "MEAN_MOTION_DOT": -2.09e-06, "MEAN_MOTION_DDOT": 0}, "tle": {"line1": "1 37392U 11016A   25338.06626277 -.00000209  00000+0  00000+0 0  9990", "line2": "2 37392   1.3005  85.1628 0004122 173.4943 166.6387  1.00271095 51328"}}, "geometry": {"type": "Point", "coordinates": [-155.27257441858347, 1.108502465527791]}}]}